NORAD_CAT_ID,OBJECT_NAME,OBJECT_TYPE,EPOCH,MEAN_MOTION,ECCENTRICITY,INCLINATION,RA_OF_ASC_NODE,ARG_OF_PERICENTER,MEAN_ANOMALY,BSTAR,MEAN_MOTION_DOT,MEAN_MOTION_DDOT,TLE_LINE0,TLE_LINE1,TLE_LINE2,SEMIMAJOR_AXIS,PERIOD,APOGEE,PERIGEE,DECAYED
51959.0,STARLINK-3704,PAYLOAD,2023-01-28 10:50:36,15.08840908,0.0001513,53.2171,89.8816,124.4066,235.7069,-9.3955e-05,-1.783e-05,0.0,0 STARLINK-3704,1 51959U 22025D   23028.45181512 -.00001783  00000-0 -93955-4 0  9998,2 51959  53.2171  89.8816 0001513 124.4066 235.7069 15.08840908 49663,6917.878,95.437,540.789,538.696,0.0
51959.0,STARLINK-3704,PAYLOAD,2023-01-28 20:22:55,15.08837348,0.0001258,53.2167,88.102,88.3234,271.7902,-4.6789e-05,-1.032e-05,0.0,0 STARLINK-3704,1 51959U 22025D   23028.84925920 -.00001032  00000-0 -46789-4 0  9990,2 51959  53.2167  88.1020 0001258  88.3234 271.7902 15.08837348 49725,6917.888,95.438,540.624,538.883,0.0
51959.0,STARLINK-3704,PAYLOAD,2023-01-29 13:52:10,15.08845676,0.0001153,53.2171,84.8305,98.8246,261.2877,0.00017642,2.521e-05,0.0,0 STARLINK-3704,1 51959U 22025D   23029.57789544  .00002521  00000-0  17642-3 0  9998,2 51959  53.2171  84.8305 0001153  98.8246 261.2877 15.08845676 50924,6917.863,95.437,540.526,538.93,0.0
51959.0,STARLINK-3704,PAYLOAD,2023-01-29 20:13:43,15.08835565,0.0001209,53.2174,83.6379,85.0314,275.0816,2.5123e-05,1.12e-06,0.0,0 STARLINK-3704,1 51959U 22025D   23029.84286039  .00000112  00000-0  25123-4 0  9997,2 51959  53.2174  83.6379 0001209  85.0314 275.0816 15.08835565 50967,6917.894,95.438,540.595,538.923,0.0
51959.0,STARLINK-3704,PAYLOAD,2023-01-30 07:21:26,15.08827956,0.0001252,53.2178,81.5583,102.6676,257.4456,4.85e-05,4.84e-06,0.0,0 STARLINK-3704,1 51959U 22025D   23030.30655170  .00000484  00000-0  48500-4 0  9992,2 51959  53.2178  81.5583 0001252 102.6676 257.4456 15.08827956 51038,6917.917,95.438,540.648,538.916,0.0
51959.0,STARLINK-3704,PAYLOAD,2023-01-30 12:07:35,15.0883091,0.0001246,53.2176,80.6664,91.9492,268.1643,6.3608e-05,7.24e-06,0.0,0 STARLINK-3704,1 51959U 22025D   23030.50527098  .00000724  00000-0  63608-4 0  9994,2 51959  53.2176  80.6664 0001246  91.9492 268.1643 15.08830910 49976,6917.908,95.438,540.635,538.911,0.0
51959.0,STARLINK-3704,PAYLOAD,2023-01-30 20:04:30,15.0883532,0.0001229,53.2179,79.1795,90.1515,269.9618,9.8778e-05,1.284e-05,0.0,0 STARLINK-3704,1 51959U 22025D   23030.83646853  .00001284  00000-0  98778-4 0  9999,2 51959  53.2179  79.1795 0001229  90.1515 269.9618 15.08835320 51115,6917.895,95.438,540.61,538.909,0.0
51959.0,STARLINK-3704,PAYLOAD,2023-01-31 11:58:21,15.08849477,0.0001254,53.218,76.2072,98.6955,261.4179,0.00014795,2.068e-05,0.0,0 STARLINK-3704,1 51959U 22025D   23031.49886040  .00002068  00000-0  14795-3 0  9993,2 51959  53.2180  76.2072 0001254  98.6955 261.4179 15.08849477 51210,6917.851,95.437,540.584,538.849,0.0
51959.0,STARLINK-3704,PAYLOAD,2023-01-31 19:55:17,15.08848518,0.0001319,53.217,74.7199,83.1735,276.9407,0.00015238,2.139e-05,0.0,0 STARLINK-3704,1 51959U 22025D   23031.83006075  .00002139  00000-0  15238-3 0  9995,2 51959  53.2170  74.7199 0001319  83.1735 276.9407 15.08848518 50173,6917.854,95.437,540.632,538.807,0.0
51959.0,STARLINK-3704,PAYLOAD,2023-02-01 10:13:45,15.08844253,0.0001558,53.2174,72.0439,85.6881,274.4289,0.00014047,1.949e-05,0.0,0 STARLINK-3704,1 51959U 22025D   23032.42622348  .00001949  00000-0  14047-3 0  9993,2 51959  53.2174  72.0439 0001558  85.6881 274.4289 15.08844253 51353,6917.867,95.437,540.81,538.655,0.0
51959.0,STARLINK-3704,PAYLOAD,2023-02-02 02:07:37,15.08836718,0.0001468,53.2163,69.0703,91.5933,268.5228,-1.99e-05,-6.05e-06,0.0,0 STARLINK-3704,1 51959U 22025D   23033.08862724 -.00000605  00000-0 -19900-4 0  9994,2 51959  53.2163  69.0703 0001468  91.5933 268.5228 15.08836718 51450,6917.89,95.438,540.771,538.74,0.0
51959.0,STARLINK-3704,PAYLOAD,2023-02-02 10:04:32,15.08840668,0.0001267,53.2165,67.5829,99.0677,261.0458,-1.0709e-05,-4.58e-06,0.0,0 STARLINK-3704,1 51959U 22025D   23033.41982500 -.00000458  00000-0 -10709-4 0  9990,2 51959  53.2165  67.5829 0001267  99.0677 261.0458 15.08840668 50416,6917.878,95.438,540.62,538.867,0.0
51959.0,STARLINK-3704,PAYLOAD,2023-02-03 06:44:33,15.08842757,0.0001385,53.2174,63.7172,91.8988,268.2163,7.755e-05,9.47e-06,0.0,0 STARLINK-3704,1 51959U 22025D   23034.28094602  .00000947  00000-0  77550-4 0  9991,2 51959  53.2174  63.7172 0001385  91.8988 268.2163 15.08842757 51639,6917.872,95.437,540.695,538.779,0.0
51959.0,STARLINK-3704,PAYLOAD,2023-02-03 11:30:42,15.08850998,0.0001327,53.2172,62.8246,105.3928,254.7211,7.9747e-05,9.82e-06,0.0,0 STARLINK-3704,1 51959U 22025D   23034.47965972  .00000982  00000-0  79747-4 0  9998,2 51959  53.2172  62.8246 0001327 105.3928 254.7211 15.08850998 51663,6917.847,95.437,540.63,538.794,0.0
51959.0,STARLINK-3704,PAYLOAD,2023-02-04 08:10:43,15.08846063,0.0001295,53.2165,58.9604,89.5802,270.5338,0.00023916,3.521e-05,0.0,0 STARLINK-3704,1 51959U 22025D   23035.34078590  .00003521  00000-0  23916-3 0  9994,2 51959  53.2165  58.9604 0001295  89.5802 270.5338 15.08846063 51795,6917.862,95.437,540.623,538.831,0.0
51959.0,STARLINK-3704,PAYLOAD,2023-02-04 11:21:29,15.08850509,0.0001311,53.2164,58.3649,95.2554,264.8588,0.00028113,4.19e-05,0.0,0 STARLINK-3704,1 51959U 22025D   23035.47326300  .00004190  00000-0  28113-3 0  9990,2 51959  53.2164  58.3649 0001311  95.2554 264.8588 15.08850509 50729,6917.848,95.437,540.62,538.806,0.0
51959.0,STARLINK-3704,PAYLOAD,2023-02-05 04:50:44,15.08838185,0.000208,53.2164,55.0879,131.1963,228.9209,4.8896e-05,4.9e-06,0.0,0 STARLINK-3704,1 51959U 22025D   23036.20190738  .00000490  00000-0  48896-4 0  9996,2 51959  53.2164  55.0879 0002080 131.1963 228.9209 15.08838185 51926,6917.886,95.438,541.19,538.312,0.0
51959.0,STARLINK-3704,PAYLOAD,2023-02-05 09:36:54,15.08833411,0.0001415,53.2159,54.1982,122.1582,237.9548,3.7729e-05,3.12e-06,0.0,0 STARLINK-3704,1 51959U 22025D   23036.40063057  .00000312  00000-0  37729-4 0  9997,2 51959  53.2159  54.1982 0001415 122.1582 237.9548 15.08833411 50868,6917.901,95.438,540.744,538.787,0.0
51959.0,STARLINK-3704,PAYLOAD,2023-02-05 17:33:50,15.0884182,0.0001222,53.2181,52.7133,92.79,267.3232,1.7659e-05,-7e-08,0.0,0 STARLINK-3704,1 51959U 22025D   23036.73182937 -.00000007  00000-0  17659-4 0  9994,2 51959  53.2181  52.7133 0001222  92.7900 267.3232 15.08841820 50913,6917.875,95.437,540.585,538.894,0.0
51959.0,STARLINK-3704,PAYLOAD,2023-02-06 06:16:54,15.08848843,0.0001286,53.217,50.3342,109.555,250.5581,9.6977e-05,1.256e-05,0.0,0 STARLINK-3704,1 51959U 22025D   23037.26174359  .00001256  00000-0  96977-4 0  9998,2 51959  53.2170  50.3342 0001286 109.5550 250.5581 15.08848843 52088,6917.853,95.437,540.608,538.829,0.0
51959.0,STARLINK-3704,PAYLOAD,2023-02-06 09:27:40,15.08852755,0.0001249,53.2165,49.7404,109.6518,250.4609,0.00021837,3.19e-05,0.0,0 STARLINK-3704,1 51959U 22025D   23037.39422182  .00003190  00000-0  21837-3 0  9993,2 51959  53.2165  49.7404 0001249 109.6518 250.4609 15.08852755 51016,6917.841,95.437,540.57,538.842,0.0
51959.0,STARLINK-3704,PAYLOAD,2023-02-06 17:24:36,15.08849188,0.0001161,53.2164,48.2538,103.1032,257.0089,0.00020263,2.939e-05,0.0,0 STARLINK-3704,1 51959U 22025D   23037.72542302  .00002939  00000-0  20263-3 0  9999,2 51959  53.2164  48.2538 0001161 103.1032 257.0089 15.08849188 51066,6917.852,95.437,540.52,538.914,0.0
51959.0,STARLINK-3704,PAYLOAD,2023-02-07 06:07:41,15.08845679,0.0001309,53.2164,45.8761,90.5144,269.5998,8.6406e-05,1.088e-05,0.0,0 STARLINK-3704,1 51959U 22025D   23038.25534441  .00001088  00000-0  86406-4 0  9999,2 51959  53.2164  45.8761 0001309  90.5144 269.5998 15.08845679 52232,6917.863,95.437,540.634,538.822,0.0
51959.0,STARLINK-3704,PAYLOAD,2023-02-07 09:18:27,15.08853068,0.0001302,53.2167,45.2821,85.2393,274.8747,0.00017778,2.544e-05,0.0,0 STARLINK-3704,1 51959U 22025D   23038.38782026  .00002544  00000-0  17778-3 0  9990,2 51959  53.2167  45.2821 0001302  85.2393 274.8747 15.08853068 51169,6917.84,95.437,540.606,538.805,0.0
51959.0,STARLINK-3704,PAYLOAD,2023-02-08 07:33:51,15.0885197,0.0001384,53.2161,41.1171,92.7568,267.3583,0.00030079,4.504e-05,0.0,0 STARLINK-3704,1 51959U 22025D   23039.31518089  .00004504  00000-0  30079-3 0  9997,2 51959  53.2161  41.1171 0001384  92.7568 267.3583 15.08851970 52394,6917.844,95.437,540.666,538.751,0.0
51959.0,STARLINK-3704,PAYLOAD,2023-02-08 10:44:37,15.0886422,0.0001478,53.216,40.5223,104.0615,256.0542,0.0012674,0.00019954,0.0,0 STARLINK-3704,1 51959U 22025D   23039.44765898  .00019954  00000-0  12674-2 0  9998,2 51959  53.2160  40.5223 0001478 104.0615 256.0542 15.08864220 51322,6917.806,95.436,540.694,538.649,0.0
51959.0,STARLINK-3704,PAYLOAD,2023-02-09 05:49:16,15.08843151,0.0001467,53.2163,36.9551,79.119,280.9967,0.0020407,0.00032342,0.0,0 STARLINK-3704,1 51959U 22025D   23040.24255208  .00032342  00000-0  20407-2 0  9996,2 51959  53.2163  36.9551 0001467  79.1190 280.9967 15.08843151 52537,6917.871,95.437,540.751,538.721,0.0
51959.0,STARLINK-3704,PAYLOAD,2023-02-09 07:24:39,15.08846345,0.0001476,53.2162,36.6572,77.6794,282.4363,0.0020464,0.00032436,0.0,0 STARLINK-3704,1 51959U 22025D   23040.30879174  .00032436  00000-0  20464-2 0  9994,2 51959  53.2162  36.6572 0001476  77.6794 282.4363 15.08846345 51454,6917.861,95.437,540.747,538.705,0.0
51959.0,STARLINK-3704,PAYLOAD,2023-02-09 20:07:45,15.08825577,0.0001536,53.2163,34.2777,96.867,263.2496,0.00073032,0.0001135,0.0,0 STARLINK-3704,1 51959U 22025D   23040.83871664  .00011350  00000-0  73032-3 0  9990,2 51959  53.2163  34.2777 0001536  96.8670 263.2496 15.08825577 52627,6917.924,95.438,540.852,538.727,0.0
51959.0,STARLINK-3704,PAYLOAD,2023-02-09 21:43:08,15.08829742,0.0001603,53.2164,33.9804,95.7919,264.3256,0.0015505,0.00024467,0.0,0 STARLINK-3704,1 51959U 22025D   23040.90495940  .00024467  00000-0  15505-2 0  9990,2 51959  53.2164  33.9804 0001603  95.7919 264.3256 15.08829742 51548,6917.912,95.438,540.886,538.668,0.0
